[{"OBJECT_NAME":"HULIANWANG DIGUI-81","OBJECT_ID":"2025-187J","EPOCH":"2026-03-04T18:43:01.788384","MEAN_MOTION":13.29341355,"ECCENTRICITY":0.0001061,"INCLINATION":50.0055,"RA_OF_ASC_NODE":220.2857,"ARG_OF_PERICENTER":135.6408,"MEAN_ANOMALY":224.455,"EPHEMERIS_TYPE":0,"CLASSIFICATION_TYPE":"U","NORAD_CAT_ID":65313,"ELEMENT_SET_NO":999,"REV_AT_EPOCH":2582,"BSTAR":6.22e-5,"MEAN_MOTION_DOT":-9.5e-7,"MEAN_MOTION_DDOT":0},{"OBJECT_NAME":"HULIANWANG DIGUI-82","OBJECT_ID":"2025-220A","EPOCH":"2026-03-04T19:58:41.327328","MEAN_MOTION":13.24421789,"ECCENTRICITY":0.0002252,"INCLINATION":86.4896,"RA_OF_ASC_NODE":79.1072,"ARG_OF_PERICENTER":101.2995,"MEAN_ANOMALY":258.8392,"EPHEMERIS_TYPE":0,"CLASSIFICATION_TYPE":"U","NORAD_CAT_ID":65817,"ELEMENT_SET_NO":999,"REV_AT_EPOCH":2110,"BSTAR":0.00010657,"MEAN_MOTION_DOT":6.0e-7,"MEAN_MOTION_DDOT":0},{"OBJECT_NAME":"HULIANWANG DIGUI-83","OBJECT_ID":"2025-220B","EPOCH":"2026-03-04T19:47:52.828800","MEAN_MOTION":13.24420993,"ECCENTRICITY":0.0002245,"INCLINATION":86.4919,"RA_OF_ASC_NODE":79.1399,"ARG_OF_PERICENTER":101.0746,"MEAN_ANOMALY":259.0641,"EPHEMERIS_TYPE":0,"CLASSIFICATION_TYPE":"U","NORAD_CAT_ID":65818,"ELEMENT_SET_NO":999,"REV_AT_EPOCH":2110,"BSTAR":0.00011264,"MEAN_MOTION_DOT":6.3e-7,"MEAN_MOTION_DDOT":0},{"OBJECT_NAME":"HULIANWANG DIGUI-84","OBJECT_ID":"2025-220C","EPOCH":"2026-03-04T19:36:57.766464","MEAN_MOTION":13.2442144,"ECCENTRICITY":0.0002238,"INCLINATION":86.4856,"RA_OF_ASC_NODE":79.0338,"ARG_OF_PERICENTER":100.1694,"MEAN_ANOMALY":259.9692,"EPHEMERIS_TYPE":0,"CLASSIFICATION_TYPE":"U","NORAD_CAT_ID":65819,"ELEMENT_SET_NO":999,"REV_AT_EPOCH":2110,"BSTAR":0.00010163,"MEAN_MOTION_DOT":5.8e-7,"MEAN_MOTION_DDOT":0},{"OBJECT_NAME":"HULIANWANG DIGUI-85","OBJECT_ID":"2025-220D","EPOCH":"2026-03-04T19:26:01.059936","MEAN_MOTION":13.2442195,"ECCENTRICITY":0.0002233,"INCLINATION":86.4917,"RA_OF_ASC_NODE":79.1302,"ARG_OF_PERICENTER":101.4717,"MEAN_ANOMALY":258.6667,"EPHEMERIS_TYPE":0,"CLASSIFICATION_TYPE":"U","NORAD_CAT_ID":65820,"ELEMENT_SET_NO":999,"REV_AT_EPOCH":2110,"BSTAR":6.279e-5,"MEAN_MOTION_DOT":4.2e-7,"MEAN_MOTION_DDOT":0},{"OBJECT_NAME":"HULIANWANG DIGUI-86","OBJECT_ID":"2025-220E","EPOCH":"2026-03-04T19:15:15.881760","MEAN_MOTION":13.24420833,"ECCENTRICITY":0.0002229,"INCLINATION":86.4896,"RA_OF_ASC_NODE":79.0915,"ARG_OF_PERICENTER":101.3425,"MEAN_ANOMALY":258.7959,"EPHEMERIS_TYPE":0,"CLASSIFICATION_TYPE":"U","NORAD_CAT_ID":65821,"ELEMENT_SET_NO":999,"REV_AT_EPOCH":2110,"BSTAR":4.8667e-5,"MEAN_MOTION_DOT":3.6e-7,"MEAN_MOTION_DDOT":0},{"OBJECT_NAME":"HULIANWANG DIGUI-87","OBJECT_ID":"2025-231A","EPOCH":"2026-03-04T19:35:26.147040","MEAN_MOTION":13.29330247,"ECCENTRICITY":6.05e-5,"INCLINATION":49.999,"RA_OF_ASC_NODE":190.203,"ARG_OF_PERICENTER":180.7852,"MEAN_ANOMALY":179.302,"EPHEMERIS_TYPE":0,"CLASSIFICATION_TYPE":"U","NORAD_CAT_ID":65995,"ELEMENT_SET_NO":999,"REV_AT_EPOCH":1900,"BSTAR":6.027e-5,"MEAN_MOTION_DOT":-9.6e-7,"MEAN_MOTION_DDOT":0},{"OBJECT_NAME":"HULIANWANG DIGUI-88","OBJECT_ID":"2025-231B","EPOCH":"2026-03-04T17:59:14.303904","MEAN_MOTION":13.29329309,"ECCENTRICITY":6.26e-5,"INCLINATION":49.9976,"RA_OF_ASC_NODE":190.5025,"ARG_OF_PERICENTER":186.6208,"MEAN_ANOMALY":173.4656,"EPHEMERIS_TYPE":0,"CLASSIFICATION_TYPE":"U","NORAD_CAT_ID":65996,"ELEMENT_SET_NO":999,"REV_AT_EPOCH":1899,"BSTAR":5.9533e-5,"MEAN_MOTION_DOT":-9.6e-7,"MEAN_MOTION_DDOT":0},{"OBJECT_NAME":"HULIANWANG DIGUI-89","OBJECT_ID":"2025-231C","EPOCH":"2026-03-04T19:23:24.218016","MEAN_MOTION":13.29329883,"ECCENTRICITY":6.36e-5,"INCLINATION":49.9954,"RA_OF_ASC_NODE":190.1202,"ARG_OF_PERICENTER":187.8987,"MEAN_ANOMALY":172.1875,"EPHEMERIS_TYPE":0,"CLASSIFICATION_TYPE":"U","NORAD_CAT_ID":65997,"ELEMENT_SET_NO":999,"REV_AT_EPOCH":1900,"BSTAR":5.9151e-5,"MEAN_MOTION_DOT":-9.7e-7,"MEAN_MOTION_DDOT":0},{"OBJECT_NAME":"HULIANWANG DIGUI-90","OBJECT_ID":"2025-231D","EPOCH":"2026-03-04T17:23:06.958176","MEAN_MOTION":13.29330047,"ECCENTRICITY":6.1e-5,"INCLINATION":49.9983,"RA_OF_ASC_NODE":190.3795,"ARG_OF_PERICENTER":187.5141,"MEAN_ANOMALY":172.5722,"EPHEMERIS_TYPE":0,"CLASSIFICATION_TYPE":"U","NORAD_CAT_ID":65998,"ELEMENT_SET_NO":999,"REV_AT_EPOCH":1899,"BSTAR":5.3662e-5,"MEAN_MOTION_DOT":-9.9e-7,"MEAN_MOTION_DDOT":0},{"OBJECT_NAME":"HULIANWANG DIGUI-91","OBJECT_ID":"2025-231E","EPOCH":"2026-03-04T18:59:20.863680","MEAN_MOTION":13.29330005,"ECCENTRICITY":6.28e-5,"INCLINATION":50.0002,"RA_OF_ASC_NODE":190.0905,"ARG_OF_PERICENTER":185.9058,"MEAN_ANOMALY":174.1807,"EPHEMERIS_TYPE":0,"CLASSIFICATION_TYPE":"U","NORAD_CAT_ID":65999,"ELEMENT_SET_NO":999,"REV_AT_EPOCH":1900,"BSTAR":7.4427e-5,"MEAN_MOTION_DOT":-8.9e-7,"MEAN_MOTION_DDOT":0},{"OBJECT_NAME":"HULIANWANG DIGUI-92","OBJECT_ID":"2025-231F","EPOCH":"2026-03-04T18:47:18.264192","MEAN_MOTION":13.29330528,"ECCENTRICITY":6.22e-5,"INCLINATION":50.0043,"RA_OF_ASC_NODE":190.0921,"ARG_OF_PERICENTER":186.7457,"MEAN_ANOMALY":173.3407,"EPHEMERIS_TYPE":0,"CLASSIFICATION_TYPE":"U","NORAD_CAT_ID":66000,"ELEMENT_SET_NO":999,"REV_AT_EPOCH":1900,"BSTAR":7.636e-5,"MEAN_MOTION_DOT":-8.9e-7,"MEAN_MOTION_DDOT":0},{"OBJECT_NAME":"HULIANWANG DIGUI-93","OBJECT_ID":"2025-231G","EPOCH":"2026-03-04T18:23:17.733408","MEAN_MOTION":13.29329616,"ECCENTRICITY":6.05e-5,"INCLINATION":50.001,"RA_OF_ASC_NODE":189.9724,"ARG_OF_PERICENTER":185.8401,"MEAN_ANOMALY":174.2464,"EPHEMERIS_TYPE":0,"CLASSIFICATION_TYPE":"U","NORAD_CAT_ID":66001,"ELEMENT_SET_NO":999,"REV_AT_EPOCH":1900,"BSTAR":6.3332e-5,"MEAN_MOTION_DOT":-9.5e-7,"MEAN_MOTION_DDOT":0},{"OBJECT_NAME":"HULIANWANG DIGUI-94","OBJECT_ID":"2025-231H","EPOCH":"2026-03-04T18:35:16.702368","MEAN_MOTION":13.29330784,"ECCENTRICITY":6.29e-5,"INCLINATION":50.0049,"RA_OF_ASC_NODE":190.0602,"ARG_OF_PERICENTER":187.8585,"MEAN_ANOMALY":172.2277,"EPHEMERIS_TYPE":0,"CLASSIFICATION_TYPE":"U","NORAD_CAT_ID":66002,"ELEMENT_SET_NO":999,"REV_AT_EPOCH":1900,"BSTAR":7.417e-5,"MEAN_MOTION_DOT":-9.0e-7,"MEAN_MOTION_DDOT":0},{"OBJECT_NAME":"HULIANWANG DIGUI-95","OBJECT_ID":"2025-231J","EPOCH":"2026-03-04T18:11:28.296960","MEAN_MOTION":13.29325772,"ECCENTRICITY":6.28e-5,"INCLINATION":50.0022,"RA_OF_ASC_NODE":189.9438,"ARG_OF_PERICENTER":184.2213,"MEAN_ANOMALY":175.8654,"EPHEMERIS_TYPE":0,"CLASSIFICATION_TYPE":"U","NORAD_CAT_ID":66003,"ELEMENT_SET_NO":999,"REV_AT_EPOCH":1900,"BSTAR":7.5885e-5,"MEAN_MOTION_DOT":-8.9e-7,"MEAN_MOTION_DDOT":0},{"OBJECT_NAME":"HULIANWANG DIGUI-96","OBJECT_ID":"2025-258A","EPOCH":"2026-03-04T00:42:42.624000","MEAN_MOTION":13.2933133,"ECCENTRICITY":3.811e-5,"INCLINATION":50.0052,"RA_OF_ASC_NODE":312.7899,"ARG_OF_PERICENTER":92.486,"MEAN_ANOMALY":267.6056,"EPHEMERIS_TYPE":0,"CLASSIFICATION_TYPE":"U","NORAD_CAT_ID":66412,"ELEMENT_SET_NO":999,"REV_AT_EPOCH":1574,"BSTAR":0.00016763318,"MEAN_MOTION_DOT":-4.6e-7,"MEAN_MOTION_DDOT":0}]
