HULIANWANG DIGUI-81     
1 65313U 25187J   26063.77988181 -.00000095  00000+0  62200-4 0  9995
2 65313  50.0055 220.2857 0001061 135.6408 224.4550 13.29341355 25821
HULIANWANG DIGUI-82     
1 65817U 25220A   26063.83242277  .00000060  00000+0  10657-3 0  9997
2 65817  86.4896  79.1072 0002252 101.2995 258.8392 13.24421789 21106
HULIANWANG DIGUI-83     
1 65818U 25220B   26063.82491700  .00000063  00000+0  11264-3 0  9992
2 65818  86.4919  79.1399 0002245 101.0746 259.0641 13.24420993 21105
HULIANWANG DIGUI-84     
1 65819U 25220C   26063.81733526  .00000058  00000+0  10163-3 0  9998
2 65819  86.4856  79.0338 0002238 100.1694 259.9692 13.24421440 21105
HULIANWANG DIGUI-85     
1 65820U 25220D   26063.80973449  .00000042  00000+0  62790-4 0  9996
2 65820  86.4917  79.1302 0002233 101.4717 258.6667 13.24421950 21106
HULIANWANG DIGUI-86     
1 65821U 25220E   26063.80226715  .00000036  00000+0  48667-4 0  9994
2 65821  86.4896  79.0915 0002229 101.3425 258.7959 13.24420833 21106
HULIANWANG DIGUI-87     
1 65995U 25231A   26063.81627485 -.00000096  00000+0  60270-4 0  9999
2 65995  49.9990 190.2030 0000605 180.7852 179.3020 13.29330247 19009
HULIANWANG DIGUI-88     
1 65996U 25231B   26063.74947111 -.00000096  00000+0  59533-4 0  9993
2 65996  49.9976 190.5025 0000626 186.6208 173.4656 13.29329309 18998
HULIANWANG DIGUI-89     
1 65997U 25231C   26063.80791919 -.00000097  00000+0  59151-4 0  9991
2 65997  49.9954 190.1202 0000636 187.8987 172.1875 13.29329883 19005
HULIANWANG DIGUI-90     
1 65998U 25231D   26063.72438609 -.00000099  00000+0  53662-4 0  9990
2 65998  49.9983 190.3795 0000610 187.5141 172.5722 13.29330047 18994
HULIANWANG DIGUI-91     
1 65999U 25231E   26063.79121370 -.00000089  00000+0  74427-4 0  9993
2 65999  50.0002 190.0905 0000628 185.9058 174.1807 13.29330005 19007
HULIANWANG DIGUI-92     
1 66000U 25231F   26063.78285028 -.00000089  00000+0  76360-4 0  9995
2 66000  50.0043 190.0921 0000622 186.7457 173.3407 13.29330528 19007
HULIANWANG DIGUI-93     
1 66001U 25231G   26063.76617747 -.00000095  00000+0  63332-4 0  9993
2 66001  50.0010 189.9724 0000605 185.8401 174.2464 13.29329616 19009
HULIANWANG DIGUI-94     
1 66002U 25231H   26063.77449887 -.00000090  00000+0  74170-4 0  9990
2 66002  50.0049 190.0602 0000629 187.8585 172.2277 13.29330784 19009
HULIANWANG DIGUI-95     
1 66003U 25231J   26063.75796640 -.00000089  00000+0  75885-4 0  9993
2 66003  50.0022 189.9438 0000628 184.2213 175.8654 13.29325772 19002
HULIANWANG DIGUI-96     
1 66412U 25258A   26063.02966000 -.00000046  00000+0  16763-3 0  9997
2 66412  50.0052 312.7899 0000381  92.4860 267.6056 13.29331330 15740
